0 FENGYUN 1C DEB
1 31057U 99025BFB 13280.44918255  .00002894  00000-0  64061-3 0  3439
2 31057 099.3095 145.1213 0225609 271.2188 086.3389 14.43601082348644
0 FENGYUN 1C DEB
1 31057U 99025BFB 13285.85534739  .00002384  00000-0  52453-3 0  3447
2 31057 099.2642 151.0090 0229411 250.7338 106.7637 14.43620302349420
0 FENGYUN 1C DEB
1 31057U 99025BFB 13288.83569568  .00002559  00000-0  56159-3 0  3458
2 31057 099.2831 154.2714 0229410 241.0246 116.8737 14.43639000349853
0 FENGYUN 1C DEB
1 31057U 99025BFB 13289.87531861  .00002601  00000-0  57184-3 0  3466
2 31057 099.2832 155.4115 0228562 237.3824 120.5274 14.43645400350007
0 FENGYUN 1C DEB
1 31057U 99025BFB 13292.85560472  .00002945  00000-0  64352-3 0  3475
2 31057 099.3044 158.7012 0229445 225.8375 132.6044 14.43670506350430
